CZ-2C R/B               
1 54039U 22132E   26054.26988750  .00046212  00000+0  55497-3 0  9990
2 54039  97.2966  57.1656 0020373 137.6777 222.6057 15.60499116188121
GSLV R/B                
1 54149U 22138AN  26054.27940773  .00003831  00000+0  33221-3 0  9993
2 54149  87.3878 171.1839 0020914 198.1197 161.9292 14.96657198181778
XRISM                   
1 57800U 23137A   26054.57378355  .00006530  00000+0  37235-3 0  9992
2 57800  31.0035  14.9498 0008335 257.9719 101.9985 15.11308868135652
ACS3                    
1 59588U 24077B   26054.59769287  .00018524  00000+0  15136-1 0  9991
2 59588  97.2143 358.8785 0050915 116.5865 244.0529 13.88948277 92249
SZ-21 MODULE            
1 66515U 25246C   26054.36010907  .00037859  00000+0  34190-3 0  9996
2 66515  41.4753 291.4924 0001560 291.3455  68.7220 15.67371956 15822
